[{"OBJECT_NAME":"IRIDIUM 165","OBJECT_ID":"2018-061D","EPOCH":"2026-03-09T12:28:22.404000","MEAN_MOTION":14.34217296,"ECCENTRICITY":0.00020877,"INCLINATION":86.3917,"RA_OF_ASC_NODE":98.4934,"ARG_OF_PERICENTER":96.9181,"MEAN_ANOMALY":263.2252,"EPHEMERIS_TYPE":0,"CLASSIFICATION_TYPE":"U","NORAD_CAT_ID":43572,"ELEMENT_SET_NO":999,"REV_AT_EPOCH":39910,"BSTAR":7.29473e-7,"MEAN_MOTION_DOT":2.2e-7,"MEAN_MOTION_DDOT":0},{"OBJECT_NAME":"REX 1","OBJECT_ID":"1991-045A","EPOCH":"2026-03-09T13:20:45.272256","MEAN_MOTION":14.23562891,"ECCENTRICITY":0.00667508,"INCLINATION":89.5234,"RA_OF_ASC_NODE":265.5233,"ARG_OF_PERICENTER":312.2979,"MEAN_ANOMALY":47.2566,"EPHEMERIS_TYPE":0,"CLASSIFICATION_TYPE":"U","NORAD_CAT_ID":21527,"ELEMENT_SET_NO":999,"REV_AT_EPOCH":80092,"BSTAR":5.4621113e-5,"MEAN_MOTION_DOT":1.39e-6,"MEAN_MOTION_DDOT":0}]
